{
  "type": "FeatureCollection",
  "features": [
    {
      "type": "Feature",
      "properties": {
        "norad_id": 66654,
        "name": "JACK E",
        "group": "last-30-days",
        "lat": 71.54942871068911,
        "lon": -98.90184304035802,
        "alt_km": 590.9070663691255,
        "timestamp": "2025-12-24T03:53:28.360465+00:00",
        "meta_object_name": "JACK E",
        "meta_object_id": "2025-274E",
        "meta_epoch": "2025-12-23T14:41:17.496384",
        "meta_mean_motion": 14.92137123,
        "meta_eccentricity": 0.0012281,
        "meta_inclination": 97.7407,
        "meta_ra_of_asc_node": 284.6177,
        "meta_arg_of_pericenter": 214.8879,
        "meta_mean_anomaly": 145.1536,
        "meta_ephemeris_type": 0,
        "meta_classification_type": "U",
        "meta_norad_cat_id": 66654,
        "meta_element_set_no": 999,
        "meta_rev_at_epoch": 402,
        "meta_bstar": 0.0003002,
        "meta_mean_motion_dot": 3.001e-05,
        "meta_mean_motion_ddot": 0,
        "tle_line1": "1 66654U 25274E   25357.61200806  .00003001  00000+0  30020-3 0  9993",
        "tle_line2": "2 66654  97.7407 284.6177 0012281 214.8879 145.1536 14.92137123  4025"
      },
      "geometry": {
        "type": "Point",
        "coordinates": [
          -98.90184304035802,
          71.54942871068911
        ]
      }
    },
    {
      "type": "Feature",
      "properties": {
        "norad_id": 66655,
        "name": "2025-274F",
        "group": "last-30-days",
        "lat": 37.52323284710622,
        "lon": -80.85802638724587,
        "alt_km": 589.760659701501,
        "timestamp": "2025-12-24T03:53:28.360476+00:00",
        "meta_object_name": "2025-274F",
        "meta_object_id": "2025-274F",
        "meta_epoch": "2025-12-23T13:13:39.842112",
        "meta_mean_motion": 14.91185756,
        "meta_eccentricity": 0.000407,
        "meta_inclination": 97.7314,
        "meta_ra_of_asc_node": 284.5321,
        "meta_arg_of_pericenter": 349.1487,
        "meta_mean_anomaly": 10.9643,
        "meta_ephemeris_type": 0,
        "meta_classification_type": "U",
        "meta_norad_cat_id": 66655,
        "meta_element_set_no": 999,
        "meta_rev_at_epoch": 401,
        "meta_bstar": 2.1041e-05,
        "meta_mean_motion_dot": 1.54e-06,
        "meta_mean_motion_ddot": 0,
        "tle_line1": "1 66655U 25274F   25357.55115558  .00000154  00000+0  21041-4 0  9996",
        "tle_line2": "2 66655  97.7314 284.5321 0004070 349.1487  10.9643 14.91185756  4018"
      },
      "geometry": {
        "type": "Point",
        "coordinates": [
          -80.85802638724587,
          37.52323284710622
        ]
      }
    },
    {
      "type": "Feature",
      "properties": {
        "norad_id": 66656,
        "name": "2025-274G",
        "group": "last-30-days",
        "lat": 82.0506752556746,
        "lon": -177.91825209528645,
        "alt_km": 588.0830434466707,
        "timestamp": "2025-12-24T03:53:28.360486+00:00",
        "meta_object_name": "2025-274G",
        "meta_object_id": "2025-274G",
        "meta_epoch": "2025-12-23T12:59:51.304128",
        "meta_mean_motion": 14.9233298,
        "meta_eccentricity": 0.0012858,
        "meta_inclination": 97.7403,
        "meta_ra_of_asc_node": 284.5555,
        "meta_arg_of_pericenter": 217.0051,
        "meta_mean_anomaly": 143.0282,
        "meta_ephemeris_type": 0,
        "meta_classification_type": "U",
        "meta_norad_cat_id": 66656,
        "meta_element_set_no": 999,
        "meta_rev_at_epoch": 401,
        "meta_bstar": 0.00031723,
        "meta_mean_motion_dot": 3.191e-05,
        "meta_mean_motion_ddot": 0,
        "tle_line1": "1 66656U 25274G   25357.54156602  .00003191  00000+0  31723-3 0  9992",
        "tle_line2": "2 66656  97.7403 284.5555 0012858 217.0051 143.0282 14.92332980  4011"
      },
      "geometry": {
        "type": "Point",
        "coordinates": [
          -177.91825209528645,
          82.0506752556746
        ]
      }
    },
    {
      "type": "Feature",
      "properties": {
        "norad_id": 66657,
        "name": "SPIRONE",
        "group": "last-30-days",
        "lat": 69.04593470231515,
        "lon": 125.97562941962673,
        "alt_km": 587.5766556509061,
        "timestamp": "2025-12-24T03:53:28.360498+00:00",
        "meta_object_name": "SPIRONE",
        "meta_object_id": "2025-274H",
        "meta_epoch": "2025-12-23T08:05:35.471040",
        "meta_mean_motion": 14.9251002,
        "meta_eccentricity": 0.0010908,
        "meta_inclination": 97.74,
        "meta_ra_of_asc_node": 284.3612,
        "meta_arg_of_pericenter": 235.5938,
        "meta_mean_anomaly": 124.425,
        "meta_ephemeris_type": 0,
        "meta_classification_type": "U",
        "meta_norad_cat_id": 66657,
        "meta_element_set_no": 999,
        "meta_rev_at_epoch": 398,
        "meta_bstar": 0.00029728,
        "meta_mean_motion_dot": 2.999e-05,
        "meta_mean_motion_ddot": 0,
        "tle_line1": "1 66657U 25274H   25357.33721610  .00002999  00000+0  29728-3 0  9994",
        "tle_line2": "2 66657  97.7400 284.3612 0010908 235.5938 124.4250 14.92510020  3980"
      },
      "geometry": {
        "type": "Point",
        "coordinates": [
          125.97562941962673,
          69.04593470231515
        ]
      }
    },
    {
      "type": "Feature",
      "properties": {
        "norad_id": 66658,
        "name": "2025-274J",
        "group": "last-30-days",
        "lat": 52.70887282400732,
        "lon": 115.46748616922724,
        "alt_km": 587.2973805417405,
        "timestamp": "2025-12-24T03:53:28.360510+00:00",
        "meta_object_name": "2025-274J",
        "meta_object_id": "2025-274J",
        "meta_epoch": "2025-12-23T17:40:20.144064",
        "meta_mean_motion": 14.9268507,
        "meta_eccentricity": 0.0011423,
        "meta_inclination": 97.7399,
        "meta_ra_of_asc_node": 284.7611,
        "meta_arg_of_pericenter": 237.4046,
        "meta_mean_anomaly": 122.6071,
        "meta_ephemeris_type": 0,
        "meta_classification_type": "U",
        "meta_norad_cat_id": 66658,
        "meta_element_set_no": 999,
        "meta_rev_at_epoch": 404,
        "meta_bstar": 0.0003463,
        "meta_mean_motion_dot": 3.519e-05,
        "meta_mean_motion_ddot": 0,
        "tle_line1": "1 66658U 25274J   25357.73634426  .00003519  00000+0  34630-3 0  9994",
        "tle_line2": "2 66658  97.7399 284.7611 0011423 237.4046 122.6071 14.92685070  4042"
      },
      "geometry": {
        "type": "Point",
        "coordinates": [
          115.46748616922724,
          52.70887282400732
        ]
      }
    },
    {
      "type": "Feature",
      "properties": {
        "norad_id": 66659,
        "name": "JACK K",
        "group": "last-30-days",
        "lat": 34.75214354434537,
        "lon": 110.60246282738372,
        "alt_km": 587.2218649569895,
        "timestamp": "2025-12-24T03:53:28.360521+00:00",
        "meta_object_name": "JACK K",
        "meta_object_id": "2025-274K",
        "meta_epoch": "2025-12-23T07:56:23.713728",
        "meta_mean_motion": 14.92863071,
        "meta_eccentricity": 0.0012097,
        "meta_inclination": 97.7399,
        "meta_ra_of_asc_node": 284.3705,
        "meta_arg_of_pericenter": 240.8002,
        "meta_mean_anomaly": 119.2008,
        "meta_ephemeris_type": 0,
        "meta_classification_type": "U",
        "meta_norad_cat_id": 66659,
        "meta_element_set_no": 999,
        "meta_rev_at_epoch": 398,
        "meta_bstar": 0.00025814,
        "meta_mean_motion_dot": 2.621e-05,
        "meta_mean_motion_ddot": 0,
        "tle_line1": "1 66659U 25274K   25357.33083002  .00002621  00000+0  25814-3 0  9996",
        "tle_line2": "2 66659  97.7399 284.3705 0012097 240.8002 119.2008 14.92863071  3984"
      },
      "geometry": {
        "type": "Point",
        "coordinates": [
          110.60246282738372,
          34.75214354434537
        ]
      }
    },
    {
      "type": "Feature",
      "properties": {
        "norad_id": 66660,
        "name": "K-HERO",
        "group": "last-30-days",
        "lat": 20.07458255087924,
        "lon": 108.04481317692397,
        "alt_km": 586.9452881060897,
        "timestamp": "2025-12-24T03:53:28.360531+00:00",
        "meta_object_name": "K-HERO",
        "meta_object_id": "2025-274L",
        "meta_epoch": "2025-12-23T12:42:03.775968",
        "meta_mean_motion": 14.930153,
        "meta_eccentricity": 0.0012735,
        "meta_inclination": 97.7405,
        "meta_ra_of_asc_node": 284.573,
        "meta_arg_of_pericenter": 240.829,
        "meta_mean_anomaly": 119.1655,
        "meta_ephemeris_type": 0,
        "meta_classification_type": "U",
        "meta_norad_cat_id": 66660,
        "meta_element_set_no": 999,
        "meta_rev_at_epoch": 401,
        "meta_bstar": 0.00026153,
        "meta_mean_motion_dot": 2.667e-05,
        "meta_mean_motion_ddot": 0,
        "tle_line1": "1 66660U 25274L   25357.52921037  .00002667  00000+0  26153-3 0  9995",
        "tle_line2": "2 66660  97.7405 284.5730 0012735 240.8290 119.1655 14.93015300  4019"
      },
      "geometry": {
        "type": "Point",
        "coordinates": [
          108.04481317692397,
          20.07458255087924
        ]
      }
    }
  ]
}